[{"OBJECT_NAME":"HAWK-11C","OBJECT_ID":"2024-247E","EPOCH":"2026-03-09T12:17:35.407968","MEAN_MOTION":15.2884802,"ECCENTRICITY":0.00059001,"INCLINATION":45.0045,"RA_OF_ASC_NODE":114.8762,"ARG_OF_PERICENTER":329.704,"MEAN_ANOMALY":30.3502,"EPHEMERIS_TYPE":0,"CLASSIFICATION_TYPE":"U","NORAD_CAT_ID":62381,"ELEMENT_SET_NO":999,"REV_AT_EPOCH":6774,"BSTAR":0.00033290115,"MEAN_MOTION_DOT":9.223e-5,"MEAN_MOTION_DDOT":0},{"OBJECT_NAME":"STARLINK-35481","OBJECT_ID":"2025-245P","EPOCH":"2026-03-09T20:52:44.180256","MEAN_MOTION":15.30198303,"ECCENTRICITY":0.0001015,"INCLINATION":53.1569,"RA_OF_ASC_NODE":283.0916,"ARG_OF_PERICENTER":73.3526,"MEAN_ANOMALY":286.7587,"EPHEMERIS_TYPE":0,"CLASSIFICATION_TYPE":"U","NORAD_CAT_ID":66247,"ELEMENT_SET_NO":999,"REV_AT_EPOCH":2128,"BSTAR":0.00059083511,"MEAN_MOTION_DOT":0.00017179,"MEAN_MOTION_DDOT":0}]
